STARLINK-1262_new
1 15366C 20019G   21326.16945069 -.00006040  00000-0 -40476-3 0  3260
2 15366  53.0539   7.9769 0001677  63.6460 213.1572 15.06398742    12
STARLINK-1262_old
1 25366C 20019G   21325.10364068  .00003548  00000-0  23769-3 0  3250
2 25366  53.0539  12.7619 0001512  64.1991 189.4437 15.06402409    14
